satname,norad_id,inclination_deg,eccentricity,mean_motion_rev_per_day,perigee_km,apogee_km,l1,l2
STARLINK-1333,45580,53.0544,0.0001529,15.0641927,546.093622028875,548.2113755576065,1 45580U 20025BB  25321.79799639  .00005050  00000+0  35752-3 0  9997,2 45580  53.0544 228.9178 0001529  86.3881 273.7283 15.06419270308506
STARLINK-1335,45581,53.0541,0.0001512,15.06401895,546.1586382184896,548.2528618661017,1 45581U 20025BC  25321.73624867  .00005552  00000+0  39133-3 0  9996,2 45581  53.0541 219.1979 0001512  97.8420 262.2740 15.06401895308632
STARLINK-1337,45582,53.0564,0.0001695,15.06409294,546.0092315608836,548.3569150657368,1 45582U 20025BD  25321.69201587  .00006087  00000+0  42710-3 0  9991,2 45582  53.0564 219.3974 0001695 101.8192 258.2987 15.06409294308627
STARLINK-1347,45586,53.0537,0.0008867,15.33999344,457.82750427158226,469.9611626383303,1 45586U 20025BH  25321.66592172  .00027276  00000+0  82498-3 0  9995,2 45586  53.0537 201.8205 0008867  76.8733 283.3257 15.33999344308869
STARLINK-1360,45588,53.0402,0.0002123,15.80125211,328.6620775355268,331.51038912039894,1 45588U 20025BK  25321.91668980  .00211407  00000+0  10850-2 0  9999,2 45588  53.0402 113.6420 0002123 219.7423   5.7938 15.80125211  5989
STARLINK-1364,45589,53.0572,0.0001631,15.0639138,546.1084484639832,548.3675057815199,1 45589U 20025BL  25321.76205300  .00001289  00000+0  10547-3 0  9995,2 45589  53.0572 219.0860 0001631  91.3056 268.8120 15.06391380308639
STARLINK-1365,45590,53.0541,0.0001616,15.06412389,546.0544575068789,548.2927178888231,1 45590U 20025BM  25321.77771786  .00001480  00000+0  11818-3 0  9999,2 45590  53.0541 249.0082 0001616  82.0538 278.0634 15.06412389308233
STARLINK-1443,45660,53.0559,7.47e-05,15.06389011,546.7279117921462,547.762563898481,1 45660U 20035D   25321.69664623  .00011085  00000+0  76208-3 0  9996,2 45660  53.0559 209.3771 0000747  81.6303 278.4771 15.06389011301855
STARLINK-1446,45663,53.0264,0.0002277,15.35105286,459.0506020208295,462.1649663955577,1 45663U 20035G   25321.84604293  .00049859  00000+0  14441-2 0  9993,2 45663  53.0264 168.1472 0002277 101.3742 258.7515 15.35105286302443
STARLINK-1448,45665,53.0544,0.0001842,15.06410875,545.9025847651128,548.4538708950458,1 45665U 20035J   25321.70031103  .00009746  00000+0  67208-3 0  9995,2 45665  53.0544 209.3541 0001842  98.0468 262.0730 15.06410875301846
STARLINK-1451,45668,53.0556,0.0002346,15.0640382,545.5751661881395,548.8245342382588,1 45668U 20035M   25321.70403696  .00001146  00000+0  95833-4 0  9990,2 45668  53.0556 209.6676 0002346  81.2891 278.8364 15.06403820301859
STARLINK-1452,45669,53.0414,0.0012311,15.28188981,472.7816313996573,489.6707554545137,1 45669U 20035N   25321.63798171  .00056889  00000+0  20361-2 0  9994,2 45669  53.0414 188.3655 0012311  79.6172 280.6214 15.28188981302149
STARLINK-1453,45670,53.0535,7.44e-05,15.09810226,536.2649146722142,537.2938542302209,1 45670U 20035P   25321.91668980  .00027107  00000+0  16697-2 0  9999,2 45670  53.0535 178.3727 0000744  96.9886 290.4837 15.09810226  5799
STARLINK-1454,45671,53.0534,0.0001239,15.06415428,546.3062289160571,548.0223185716895,1 45671U 20035Q   25321.72610880 -.00006710  00000+0 -43180-3 0  9992,2 45671  53.0534 209.2447 0001239  81.8323 278.2807 15.06415428301849
STARLINK-1456,45673,53.0535,0.0001172,15.06425548,546.3216164302266,547.9448997787276,1 45673U 20035S   25321.74085789  .00010582  00000+0  72774-3 0  9991,2 45673  53.0535 209.1792 0001172  83.8216 276.2907 15.06425548301868
STARLINK-1457,45674,53.0682,0.0001549,15.40612665,443.2431756328979,445.356766606551,1 45674U 20035T   25321.91668980  .01069507  00000+0  23734-1 0  9993,2 45674  53.0682 206.1323 0001549 111.5922 159.7529 15.40612665  5840
STARLINK-1458,45675,53.0531,0.0001259,15.06422094,546.2719509797789,548.0157366962576,1 45675U 20035U   25321.67082962  .00006709  00000+0  46857-3 0  9994,2 45675  53.0531 209.4881 0001259 103.8753 256.2376 15.06422094301819
STARLINK-1460,45676,53.0535,0.0001283,15.06401115,546.3196188444317,548.0966624075172,1 45676U 20035V   25321.70768912  .00007676  00000+0  53364-3 0  9990,2 45676  53.0535 209.3213 0001283  97.8596 262.2539 15.06401115301815
STARLINK-1392,45677,53.0545,0.0001412,15.06399809,546.2342840267929,548.1900026248677,1 45677U 20035W   25321.71874594  .00007086  00000+0  49414-3 0  9992,2 45677  53.0545 209.2771 0001412  89.6001 270.5149 15.06399809301858
STARLINK-1394,45679,53.053,0.0001417,15.06406492,546.2103418934958,548.1729800360126,1 45679U 20035Y   25321.64963862  .00009592  00000+0  66181-3 0  9997,2 45679  53.0530 199.5858 0001417  85.2687 274.8463 15.06406492301985
STARLINK-1402,45685,53.0526,0.0003885,15.2850028,477.6303285794502,482.9593301108507,1 45685U 20035AE  25321.80892572  .00051207  00000+0  18214-2 0  9994,2 45685  53.0526 189.0518 0003885 135.4081 224.7231 15.28500280302152
STARLINK-1404,45686,53.0506,9.17e-05,15.06401119,546.573074218295,547.8431825148382,1 45686U 20035AF  25321.67543578  .00009870  00000+0  68056-3 0  9998,2 45686  53.0506 199.4724 0000917  72.8077 287.3012 15.06401119301997
STARLINK-1413,45689,53.0549,0.0001338,15.06406982,546.26355042262,548.1167679704213,1 45689U 20035AJ  25321.69385844 -.00003846  00000+0 -23942-3 0  9997,2 45689  53.0549 199.3869 0001338 101.8884 258.2255 15.06406982301903
STARLINK-1417,45693,53.0531,0.0001055,15.06412589,546.4423545327909,547.9035949374611,1 45693U 20035AN  25321.69016970 -.00004115  00000+0 -25740-3 0  9991,2 45693  53.0531 199.4064 0001055  91.7229 268.3880 15.06412589301987
STARLINK-1420,45695,53.0526,0.000123,15.06418808,546.3021039443629,548.0057255093861,1 45695U 20035AQ  25321.62473422  .00010038  00000+0  69146-3 0  9992,2 45695  53.0526 179.6874 0001230  89.4599 270.6531 15.06418808302262
STARLINK-1422,45696,53.0547,0.0001504,15.06406491,546.1500945985163,548.2332334606572,1 45696U 20035AR  25321.70124031  .00008663  00000+0  59964-3 0  9999,2 45696  53.0547 199.3575 0001504  96.7406 263.3754 15.06406491301984
STARLINK-1351,45697,53.0525,0.0001323,15.0640518,546.2794605159952,548.1119035436595,1 45697U 20035AS  25321.61093841  .00004080  00000+0  29257-3 0  9995,2 45697  53.0525 179.7614 0001323  84.8779 275.2361 15.06405180302269
STARLINK-1398,45699,53.0459,0.0004797,15.54790634,399.50850187225296,406.01409570010856,1 45699U 20035AU  25321.75909179  .00051566  00000+0  76319-3 0  9994,2 45699  53.0459 133.0193 0004797 159.8604 200.2596 15.54790634302936
STARLINK-1400,45700,53.0512,0.0001315,15.06419231,546.2419427352697,548.0632939048874,1 45700U 20035AV  25321.31975291  .00010818  00000+0  74362-3 0  9998,2 45700  53.0512 181.0670 0001315  89.3716 270.7423 15.06419231302216
STARLINK-1403,45701,53.0524,0.000149,15.0641427,546.1359523701876,548.1996932073789,1 45701U 20035AW  25321.61462207  .00004247  00000+0  30372-3 0  9992,2 45701  53.0524 179.7440 0001490  92.2073 267.9086 15.06414270302257
STARLINK-1407,45703,53.0392,0.0011898,15.43745124,426.96142334390606,443.174125425031,1 45703U 20035AY  25321.52864875  .00041111  00000+0  89784-3 0  9993,2 45703  53.0392 134.3791 0011898 114.7599 245.4645 15.43745124302892
STARLINK-1411,45706,53.0504,0.0001675,15.4336432,435.0470387445921,437.3298377664087,1 45706U 20035BB  25321.60693921  .00042922  00000+0  95105-3 0  9992,2 45706  53.0504 161.2181 0001675 167.1111 192.9937 15.43364320302510
STARLINK-1423,45710,53.0524,0.0001541,15.06413286,546.1036486231669,548.2380284990113,1 45710U 20035BF  25321.64042046  .00002401  00000+0  17995-3 0  9996,2 45710  53.0524 179.6288 0001541  81.7443 278.3721 15.06413286302266
STARLINK-1433,45711,53.0538,0.0001271,15.06418022,546.276118873152,548.036528436026,1 45711U 20035BG  25321.62199454  .00008278  00000+0  57369-3 0  9998,2 45711  53.0538 179.7105 0001271  91.7434 268.3701 15.06418022302251
STARLINK-1434,45712,53.0506,0.0007376,15.1651737,511.2904033311406,521.4611886077537,1 45712U 20035BH  25321.60871251  .00030609  00000+0  15600-2 0  9993,2 45712  53.0506 174.7761 0007376 112.7382 247.4392 15.16517370302338
STARLINK-1465,45731,53.0563,0.0001164,15.06401406,546.4011386835746,548.0133588246854,1 45731U 20038B   25321.58881537 -.00000150  00000+0  87964-5 0  9996,2 45731  53.0563  19.8573 0001164  82.3949 277.7172 15.06401406299295
STARLINK-1471,45735,53.0511,0.0001118,15.41845123,439.90151490003336,441.4261987716218,1 45735U 20038F   25321.28294510  .00029775  00000+0  69824-3 0  9992,2 45735  53.0511 317.3714 0001118  72.3443 287.7683 15.41845123300155
STARLINK-1474,45738,53.0365,0.000443,15.70420862,354.70933002842594,360.6772756767523,1 45738U 20038J   25321.85878485  .00099460  00000+0  79188-3 0  9999,2 45738  53.0365 268.5329 0004430  56.4214 303.7225 15.70420862300885
STARLINK-1475,45739,53.0458,0.0006385,15.88664796,301.75756714193903,310.29324253291543,1 45739U 20038K   25321.91668980  .00368109  00000+0  12320-2 0  9997,2 45739  53.0458 233.0025 0006385 101.7049  14.7178 15.88664796  5883
STARLINK-1480,45741,53.0569,0.0001871,15.06407575,545.8926133801215,548.4840701230041,1 45741U 20038M   25321.57037948  .00004127  00000+0  29574-3 0  9993,2 45741  53.0569  19.9334 0001871  92.6696 267.4507 15.06407575299309
STARLINK-1500,45744,53.0415,0.0001269,15.28580981,479.1831302108221,480.9237389431173,1 45744U 20038Q   25321.83158756  .00022907  00000+0  82290-3 0  9996,2 45744  53.0415 354.9072 0001269 294.6631  65.4235 15.28580981299678
STARLINK-1504,45746,53.0283,0.0002057,15.4194178,438.9763263323248,441.78146377154826,1 45746U 20038S   25321.69190705  .00073382  00000+0  16917-2 0  9997,2 45746  53.0283 318.5382 0002057 352.7830   7.3145 15.41941780300161
STARLINK-1506,45747,53.0653,0.0002329,15.21948951,498.3605395756358,501.56435829895054,1 45747U 20038T   25321.53199845  .00011068  00000+0  49287-3 0  9995,2 45747  53.0653 359.6062 0002329 319.1051  40.9769 15.21948951299581
